OBJECT_NAME,OBJECT_ID,EPOCH,MEAN_MOTION,ECCENTRICITY,INCLINATION,RA_OF_ASC_NODE,ARG_OF_PERICENTER,MEAN_ANOMALY,EPHEMERIS_TYPE,CLASSIFICATION_TYPE,NORAD_CAT_ID,ELEMENT_SET_NO,REV_AT_EPOCH,BSTAR,MEAN_MOTION_DOT,MEAN_MOTION_DDOT
KUZGTU 1 (RS47S),2023-091AV,2026-07-17T16:52:48.315936,15.30502370,.0009819,97.5044,263.5057,357.1043,3.0139,0,U,57217,999,16904,.20644E-3,.6017E-4,0
SONATE-2,2024-043Q,2026-07-17T16:10:00.145056,15.60966407,.0006774,97.5566,350.9988,98.7967,261.4057,0,U,59112,999,13264,.29878E-3,.24986E-3,0
MESAT1,2024-125G,2026-07-17T02:18:03.631104,15.66613210,.001085,97.2241,56.3290,106.3695,253.8760,0,U,60209,999,11424,.44049E-3,.4625E-3,0
OOV-CUBE (TUBSAT-30),2024-128F,2026-07-17T17:29:30.143040,15.02879435,.0040796,61.9940,119.0668,140.5650,219.8424,0,U,60240,999,11070,.80211E-4,.883E-5,0
COLIBRI-S (RS67S),2024-199M,2026-07-17T16:41:05.286048,15.48917263,.0009266,97.2940,72.8472,153.6661,206.5063,0,U,61746,999,14213,.23295E-3,.12499E-3,0
HORS 3 (RS81S),2024-199U,2026-07-17T16:48:17.767296,15.57029577,.0007374,97.2923,75.1887,148.3133,211.8568,0,U,61753,999,14230,.32442E-3,.23393E-3,0
HORS 4 (RS82S),2024-199V,2026-07-17T16:32:12.973056,15.62559868,.0007265,97.2863,76.5935,141.0319,219.1464,0,U,61754,999,14240,.37665E-3,.33572E-3,0
SIT-2086,2024-199AF,2026-07-17T17:10:22.483200,15.55140921,.0008419,97.2879,75.5747,136.9535,223.2379,0,U,61764,999,13917,.33339E-3,.22429E-3,0
HYPERVIEW 1G (RS66S),2024-199AP,2026-07-17T10:47:45.171168,15.86108599,.0008311,97.2778,79.9100,143.3161,216.8680,0,U,61772,999,13945,.66647E-3,.166984E-2,0
ALTAIR (RS65S),2024-199AW,2026-07-17T16:55:16.701024,15.37539104,.0012312,97.2985,67.8596,187.2710,172.8358,0,U,61779,999,14180,.16787E-3,.6114E-4,0
ASRTU-1 (AO-123),2024-199AY,2026-07-17T17:18:08.682912,15.36075218,.0013277,97.2956,67.1186,191.3155,168.7792,0,U,61781,999,13861,.11787E-3,.4071E-4,0
SAMSAT-IONOSPHERE (RS75S),2024-199BB,2026-07-17T16:14:03.591744,15.60285951,.0009493,97.2886,75.3340,152.4395,207.7367,0,U,61784,999,14231,.36639E-3,.29931E-3,0
RTU MIREA 1 (RS51S),2024-199BC,2026-07-17T16:33:54.422208,15.64489138,.0009576,97.2871,76.3536,147.4300,212.7552,0,U,61785,999,13923,.41412E-3,.39889E-3,0
TEVEL2-4,2025-052D,2026-07-17T16:30:13.677120,15.35621096,.0003368,97.3859,95.1461,46.9378,313.2147,0,U,63213,999,7479,.27972E-3,.9609E-4,0
TEVEL2-5,2025-052E,2026-07-16T16:03:21.768480,15.35411833,.00034631,97.3862,94.0641,50.3372,309.8177,0,U,63214,999,7463,.32362702E-3,.11058E-3,0
TEVEL2-6,2025-052F,2026-07-17T15:49:49.044288,15.35395037,.0003363,97.3864,95.0416,51.0715,309.0827,0,U,63215,999,7478,.28776E-3,.9817E-4,0
TEVEL2-1,2025-052H,2026-07-17T12:05:46.515840,15.34820987,.0004106,97.3833,94.4731,55.4900,304.6730,0,U,63217,999,7474,.273E-3,.914E-4,0
TEVEL2-3,2025-052J,2026-07-17T15:04:07.385664,15.34886314,.0003811,97.3840,94.6233,57.5215,302.6396,0,U,63218,999,7476,.26261E-3,.8807E-4,0
TEVEL2-2,2025-052K,2026-07-17T10:32:03.164064,15.34831434,.0004139,97.3834,94.4108,55.7304,304.4330,0,U,63219,999,7473,.28479E-3,.9542E-4,0
OTP-2,2025-052AB,2026-07-17T11:48:49.334688,15.24353705,.0008055,97.3826,90.4721,64.7620,295.4452,0,U,63235,999,7448,.14056E-3,.3372E-4,0
TEVEL2-9,2025-052AD,2026-07-16T16:08:49.602048,15.32762164,.00075566,97.3899,92.9536,53.0535,307.1398,0,U,63237,999,7454,.32238013E-3,.10133E-3,0
TEVEL2-7,2025-052AE,2026-07-17T04:14:23.728992,15.32453102,.00076022,97.3898,93.3596,51.1945,308.9975,0,U,63238,999,7461,.28759837E-3,.8943E-4,0
TEVEL2-8,2025-052AF,2026-07-16T15:54:27.850176,15.32429153,.00077106,97.3904,92.8233,54.0583,306.1374,0,U,63239,999,7453,.30904259E-3,.9609E-4,0
INNOSAT 16 (RS92S7),2025-155C,2026-07-17T16:45:00.466848,15.25753831,.0012439,97.4587,165.7386,80.9248,279.3398,0,U,64878,999,8532,.12043E-3,.3006E-4,0
GEOSCAN 6 (RS92S6),2025-155D,2026-07-17T17:10:17.903136,15.30682657,.0009881,97.4578,167.4011,75.1199,285.1135,0,U,64879,999,8543,.17802E-3,.5208E-4,0
GEOSCAN 1 (RS92S1),2025-155E,2026-07-17T16:55:52.583808,15.31333299,.0009794,97.4575,167.5666,75.2790,284.9536,0,U,64880,999,8544,.19341E-3,.5781E-4,0
239ALFEROV (RS61S),2025-155F,2026-07-17T16:40:35.285376,15.33712809,.0009526,97.4573,168.2242,75.3086,284.9212,0,U,64881,999,8548,.24292E-3,.7849E-4,0
GEOSCAN 2 (RS92S2),2025-155Q,2026-07-17T16:39:14.791680,15.31590816,.0008918,97.4574,167.7193,65.7123,294.5049,0,U,64890,999,8545,.19306E-3,.5816E-4,0
GEOSCAN 5 (RS92S5),2025-155R,2026-07-17T16:15:51.074208,15.34016215,.0008582,97.4566,168.3558,79.9887,280.2324,0,U,64891,999,8549,.23385E-3,.7624E-4,0
GEOSCAN 4 (RS92S4),2025-155S,2026-07-17T15:48:28.685376,15.34185571,.0008487,97.4570,168.3942,80.5242,279.6959,0,U,64892,999,8549,.24956E-3,.8186E-4,0
